NORAD_CAT_ID,OBJECT_NAME,OBJECT_TYPE,EPOCH,MEAN_MOTION,ECCENTRICITY,INCLINATION,RA_OF_ASC_NODE,ARG_OF_PERICENTER,MEAN_ANOMALY,BSTAR,MEAN_MOTION_DOT,MEAN_MOTION_DDOT,TLE_LINE0,TLE_LINE1,TLE_LINE2,SEMIMAJOR_AXIS,PERIOD,APOGEE,PERIGEE,DECAYED
53390.0,STARLINK-4517,PAYLOAD,2022-08-26 14:00:01,15.73257296,8.420000000000001e-05,53.2191,166.9633,70.6302,277.2047,0.00030964,0.00043166,0.0,0 STARLINK-4517,1 53390U 22097C   22238.58335648  .00043166  00000-0  30964-3 0  9994,2 53390  53.2191 166.9633 0000842  70.6302 277.2047 15.73257296  1309,6727.732,91.53,350.163,349.03,0.0
53390.0,STARLINK-4517,PAYLOAD,2022-08-26 22:00:00,15.73340005,0.0001002,53.2185,165.312,70.7204,6.0614,-0.00080153,-0.00112286,0.0,0 STARLINK-4517,1 53390U 22097C   22238.91667824 -.00112286  00000-0 -80153-3 0  9992,2 53390  53.2185 165.3120 0001002  70.7204   6.0614 15.73340005  1306,6727.496,91.525,350.035,348.68699999999984,0.0
53390.0,STARLINK-4517,PAYLOAD,2022-08-27 14:00:01,15.73043012,0.0001175,53.2176,162.0036,73.2682,181.4151,-0.008936,-0.01113908,0.0,0 STARLINK-4517,1 53390U 22097C   22239.58334491 -.01113908  00000-0 -89360-2 0  9998,2 53390  53.2176 162.0036 0001175  73.2682 181.4151 15.73043012  1307,6728.343000000003,91.542,350.99800000000016,349.417,0.0
53390.0,STARLINK-4517,PAYLOAD,2022-08-27 22:00:00,15.72237224,0.0001030999999999,53.2176,160.352,72.2191,270.7107,-0.0092222,-0.0111072,0.0,0 STARLINK-4517,1 53390U 22097C   22239.91667824 -.01110720  00000-0 -92222-2 0  9994,2 53390  53.2176 160.3520 0001031  72.2191 270.7107 15.72237224  1303,6730.641,91.589,353.2,351.81300000000016,0.0
53390.0,STARLINK-4517,PAYLOAD,2022-08-28 06:00:00,15.71430898,0.0001024,53.2173,158.7034,75.2466,354.9634,-0.0094831,-0.01104238,0.0,0 STARLINK-4517,1 53390U 22097C   22240.25001157 -.01104238  00000-0 -94831-2 0  9999,2 53390  53.2173 158.7034 0001024  75.2466 354.9634 15.71430898  3270,6732.944,91.636,355.49800000000016,354.119,0.0
53390.0,STARLINK-4517,PAYLOAD,2022-08-28 14:00:01,15.70628059,0.0001190999999999,53.2174,157.0534,68.3129,88.2136,-0.0098114,-0.01104298,0.0,0 STARLINK-4517,1 53390U 22097C   22240.58334491 -.01104298  00000-0 -98114-2 0  9999,2 53390  53.2174 157.0534 0001191  68.3129  88.2136 15.70628059  1305,6735.238,91.683,357.905,356.301,0.0
53390.0,STARLINK-4517,PAYLOAD,2022-08-28 22:00:00,15.69826302,0.0001202,53.2176,155.4084,72.3516,169.524,-0.010164,-0.01105842,0.0,0 STARLINK-4517,1 53390U 22097C   22240.91667824 -.01105842  00000-0 -10164-1 0  9999,2 53390  53.2176 155.4084 0001202  72.3516 169.5240 15.69826302  3374,6737.531,91.73,360.206,358.586,0.0
53390.0,STARLINK-4517,PAYLOAD,2022-08-29 14:00:01,15.68219108,0.0001020999999999,53.2173,152.1213,67.8316,341.8515,-0.010843,-0.01103536,0.0,0 STARLINK-4517,1 53390U 22097C   22241.58334491 -.01103536  00000-0 -10843-1 0  9996,2 53390  53.2173 152.1213 0001021  67.8316 341.8515 15.68219108  1305,6742.1330000000025,91.824,364.687,363.31,0.0
53390.0,STARLINK-4517,PAYLOAD,2022-08-29 16:00:00,15.67876195,0.000134,53.2173,151.7136,67.7724,92.6884,-0.0090128999999999,-0.00922102,0.0,0 STARLINK-4517,1 53390U 22097C   22241.66667824 -.00922102  00000-0 -90129-2 0  9997,2 53390  53.2173 151.7136 0001340  67.7724  92.6884 15.67876195  3496,6743.1169999999975,91.844,365.885,364.078,0.0
53390.0,STARLINK-4517,PAYLOAD,2022-08-29 22:00:00,15.67417043,0.000128,53.2174,150.4822,61.2557,70.8821,-0.011211,-0.01103956,0.0,0 STARLINK-4517,1 53390U 22097C   22241.91667824 -.01103956  00000-0 -11211-1 0  9998,2 53390  53.2174 150.4822 0001280  61.2557  70.8821 15.67417043  3538,6744.433000000001,91.871,367.162,365.435,0.0
53390.0,STARLINK-4517,PAYLOAD,2022-08-30 14:00:01,15.65825359,0.0001187,53.2177,147.2099,63.8512,230.2956,-0.012178,-0.01140175,0.0,0 STARLINK-4517,1 53390U 22097C   22242.58334491 -.01140175  00000-0 -12178-1 0  9990,2 53390  53.2177 147.2099 0001187  63.8512 230.2956 15.65825359  3639,6749.003000000002,91.964,371.669,370.067,0.0
53390.0,STARLINK-4517,PAYLOAD,2022-08-30 22:00:00,15.65044909,0.0001048,53.218,145.576,76.9993,296.6954,-0.012891,-0.01166681,0.0,0 STARLINK-4517,1 53390U 22097C   22242.91667824 -.01166681  00000-0 -12891-1 0  9998,2 53390  53.2180 145.5760 0001048  76.9993 296.6954 15.65044909  1303,6751.246999999999,92.01,373.819,372.404,0.0
53390.0,STARLINK-4517,PAYLOAD,2022-08-31 14:00:01,15.63401958,0.0001299,53.2171,142.3098,60.9331,109.0126,-0.01315,-0.01119485,0.0,0 STARLINK-4517,1 53390U 22097C   22243.58334491 -.01119485  00000-0 -13150-1 0  9992,2 53390  53.2171 142.3098 0001299  60.9331 109.0126 15.63401958  3791,6755.976,92.107,378.718,376.963,0.0
53390.0,STARLINK-4517,PAYLOAD,2022-08-31 22:00:00,15.62598285,0.0001273,53.2173,140.6829,66.266,180.3458,-0.01355,-0.01117676,0.0,0 STARLINK-4517,1 53390U 22097C   22243.91667824 -.01117676  00000-0 -13550-1 0  9992,2 53390  53.2173 140.6829 0001273  66.2660 180.3458 15.62598285  1306,6758.292,92.154,381.017,379.297,0.0
53390.0,STARLINK-4517,PAYLOAD,2022-09-01 06:00:00,15.61805464,0.0001133,53.2169,139.0592,64.4818,257.8251,-0.014153,-0.01130308,0.0,0 STARLINK-4517,1 53390U 22097C   22244.25001157 -.01130308  00000-0 -14153-1 0  9998,2 53390  53.2169 139.0592 0001133  64.4818 257.8251 15.61805464  3896,6760.579000000002,92.201,383.21,381.67800000000005,0.0
53390.0,STARLINK-4517,PAYLOAD,2022-09-01 14:00:01,15.60992882,0.0001084,53.2173,137.4302,61.5381,335.5794,-0.014446,-0.01118894,0.0,0 STARLINK-4517,1 53390U 22097C   22244.58335648 -.01118894  00000-0 -14446-1 0  9990,2 53390  53.2173 137.4302 0001084  61.5381 335.5794 15.60992882  1300,6762.925,92.249,385.523,384.057,0.0
53390.0,STARLINK-4517,PAYLOAD,2022-09-01 22:00:00,15.60190688,0.0001301,53.2174,135.8094,59.3105,51.5129,-0.014902,-0.01118984,0.0,0 STARLINK-4517,1 53390U 22097C   22244.91667824 -.01118984  00000-0 -14902-1 0  9998,2 53390  53.2174 135.8094 0001301  59.3105  51.5129 15.60190688  1303,6765.243,92.296,387.98800000000006,386.228,0.0
53390.0,STARLINK-4517,PAYLOAD,2022-09-02 06:00:00,15.59415607,0.0001422,53.2169,134.191,59.9237,123.69,-0.01586,-0.01152417,0.0,0 STARLINK-4517,1 53390U 22097C   22245.25001157 -.01152417  00000-0 -15860-1 0  9990,2 53390  53.2169 134.1910 0001422  59.9237 123.6900 15.59415607  4054,6767.484,92.342,390.312,388.387,0.0
53390.0,STARLINK-4517,PAYLOAD,2022-09-02 14:00:01,15.58584087,0.0001230999999999,53.2173,132.5684,66.6915,188.7838,-0.015823,-0.01117306,0.0,0 STARLINK-4517,1 53390U 22097C   22245.58334491 -.01117306  00000-0 -15823-1 0  9993,2 53390  53.2173 132.5684 0001231  66.6915 188.7838 15.58584087  1300,6769.891,92.392,392.589,390.923,0.0
53390.0,STARLINK-4517,PAYLOAD,2022-09-02 22:00:01,15.57854809,0.0001127999999999,53.2174,130.9552,74.3149,252.0599,-0.017731,-0.01207586,0.0,0 STARLINK-4517,1 53390U 22097C   22245.91668981 -.01207586  00000-0 -17731-1 0  9994,2 53390  53.2174 130.9552 0001128  74.3149 252.0599 15.57854809  1307,6772.004,92.435,394.633,393.105,0.0
53390.0,STARLINK-4517,PAYLOAD,2022-09-03 14:00:01,15.56168341,0.0001361,53.217,127.726,53.2649,51.9521,-0.017163,-0.0110739999999999,0.0,0 STARLINK-4517,1 53390U 22097C   22246.58334491 -.01107400  00000-0 -17163-1 0  9997,2 53390  53.2170 127.7260 0001361  53.2649  51.9521 15.56168341  4260,6776.896,92.535,399.6830000000001,397.838,0.0
53390.0,STARLINK-4517,PAYLOAD,2022-09-03 22:00:00,15.5537176,0.0001475,53.2171,126.1148,55.04600000000001,118.1518,-0.017815,-0.01115092,0.0,0 STARLINK-4517,1 53390U 22097C   22246.91667824 -.01115092  00000-0 -17815-1 0  9993,2 53390  53.2171 126.1148 0001475  55.0460 118.1518 15.55371760  1300,6779.209,92.582,402.074,400.074,0.0
53390.0,STARLINK-4517,PAYLOAD,2022-09-04 06:00:00,15.54572215,0.000123,53.2171,124.5058,76.7818,163.4336,-0.018448,-0.01120383,0.0,0 STARLINK-4517,1 53390U 22097C   22247.25001157 -.01120383  00000-0 -18448-1 0  9994,2 53390  53.2171 124.5058 0001230  76.7818 163.4336 15.54572215  4365,6781.533,92.63,404.233,402.564,0.0
53390.0,STARLINK-4517,PAYLOAD,2022-09-04 14:00:01,15.53765515,0.0001136,53.2172,122.8969,71.7184,234.6179,-0.018888,-0.01114163,0.0,0 STARLINK-4517,1 53390U 22097C   22247.58335648 -.01114163  00000-0 -18888-1 0  9992,2 53390  53.2172 122.8969 0001136  71.7184 234.6179 15.53765515  1307,6783.880999999999,92.678,406.516,404.975,0.0
53390.0,STARLINK-4517,PAYLOAD,2022-09-04 20:00:01,15.53164001,0.000131,53.2175,121.6944,62.5802,202.5974,-0.0193069999999999,-0.01114134,0.0,0 STARLINK-4517,1 53390U 22097C   22247.83334491 -.01114134  00000-0 -19307-1 0  9990,2 53390  53.2175 121.6944 0001310  62.5802 202.5974 15.53164001  1309,6785.632,92.714,408.386,406.608,0.0
53390.0,STARLINK-4517,PAYLOAD,2022-09-05 04:00:00,15.52362459,0.0001072999999999,53.2172,120.0914,72.1714,257.3706,-0.019903,-0.01115289,0.0,0 STARLINK-4517,1 53390U 22097C   22248.16667824 -.01115289  00000-0 -19903-1 0  9990,2 53390  53.2172 120.0914 0001073  72.1714 257.3706 15.52362459  4503,6787.967,92.762,410.561,409.104,0.0
53390.0,STARLINK-4517,PAYLOAD,2022-09-05 14:00:01,15.51360813,0.0001436,53.2174,118.0877,52.6927,85.9506,-0.0207639999999999,-0.01121586,0.0,0 STARLINK-4517,1 53390U 22097C   22248.58334491 -.01121586  00000-0 -20764-1 0  9991,2 53390  53.2174 118.0877 0001436  52.6927  85.9506 15.51360813  1301,6790.889,92.822,413.729,411.779,0.0
53390.0,STARLINK-4517,PAYLOAD,2022-09-05 22:00:00,15.50524835,0.0001593,53.2174,116.4907,48.2191,152.6164,-0.016636,-0.00879252,0.0,0 STARLINK-4517,1 53390U 22097C   22248.91667824 -.00879252  00000-0 -16636-1 0  9999,2 53390  53.2174 116.4907 0001593  48.2191 152.6164 15.50524835  1302,6793.33,92.872,416.277,414.112,0.0
53390.0,STARLINK-4517,PAYLOAD,2022-09-06 06:00:00,15.50041153,0.0001361,53.217,114.896,55.3357,206.7342,-0.021234,-0.01096532,0.0,0 STARLINK-4517,1 53390U 22097C   22249.25001157 -.01096532  00000-0 -21234-1 0  9991,2 53390  53.2170 114.8960 0001361  55.3357 206.7342 15.50041153  4674,6794.743,92.901,417.533,415.6830000000001,0.0
